STARLINK-34709          
1 64844U 25152C   26158.33106395  .00002208  00000+0  15695-3 0  9993
2 64844  97.3947  13.1353 0002328  82.5500 277.5992 15.05655404 48905
STARLINK-34706          
1 64845U 25152D   26158.34213648  .00003678  00000+0  25874-3 0  9997
2 64845  97.3959  13.1221 0001540  70.3311 289.8083 15.05656277 48909
STARLINK-34736          
1 64846U 25152E   26158.50552125 -.00001051  00000+0 -68815-4 0  9990
2 64846  97.3951  13.3533 0001624  86.6053 273.5360 15.05647708 48936
STARLINK-34746          
1 64847U 25152F   26158.37814237  .00005136  00000+0  35962-3 0  9993
2 64847  97.3934  13.2256 0002641  86.3726 273.7804 15.05658535 48916
STARLINK-34748          
1 64848U 25152G   26158.16492216  .00007051  00000+0  49214-3 0  9993
2 64848  97.3973  13.0565 0001145  69.2712 290.8638 15.05657211 48885
STARLINK-34756          
1 64849U 25152H   26158.38091277  .00004246  00000+0  29807-3 0  9999
2 64849  97.3931  13.2384 0002373  85.6809 274.4689 15.05656233 48915
STARLINK-34757          
1 64850U 25152J   26158.32275728  .00003984  00000+0  27990-3 0  9999
2 64850  97.3938  13.1436 0002314  85.5511 274.5980 15.05658256 48906
STARLINK-34722          
1 64851U 25152K   26158.33383236  .00004619  00000+0  32384-3 0  9994
2 64851  97.3950  13.1316 0002315  81.8960 278.2530 15.05656587 48903
STARLINK-34564          
1 64852U 25152L   26158.31721978  .00006196  00000+0  43290-3 0  9992
2 64852  97.3942  13.1545 0002464  88.8471 271.3039 15.05660623 48902
STARLINK-34676          
1 64853U 25152M   26158.33659946  .00004810  00000+0  33707-3 0  9993
2 64853  97.3947  13.1273 0001940  87.4612 272.6837 15.05657727 48907
STARLINK-34682          
1 64854U 25152N   26158.35599281  .00004529  00000+0  31774-3 0  9990
2 64854  97.3958  13.2607 0002380  86.4021 273.7479 15.05647352 48912
STARLINK-34631          
1 64855U 25152P   26157.85479160  .00006268  00000+0  43775-3 0  9994
2 64855  97.3952  12.7049 0002923  83.7120 276.4440 15.05670303 48835
STARLINK-34578          
1 64856U 25152Q   26158.15107616  .00003436  00000+0  24198-3 0  9995
2 64856  97.3940  13.0789 0001512 107.6422 252.4970 15.05659625 48883
STARLINK-34683          
1 64857U 25152R   26158.17602084 -.00007964  00000+0 -54900-3 0  9993
2 64857  97.3975  13.0448 0003202  90.0815 270.0779 15.05616958 48888
STARLINK-34654          
1 64858U 25152S   26158.35321917  .00005509  00000+0  38546-3 0  9996
2 64858  97.3963  13.2520 0001592  76.5176 283.6228 15.05654465 48916
STARLINK-34575          
1 64859U 25152T   26158.34768620  .00006219  00000+0  43454-3 0  9995
2 64859  97.3948  13.2684 0001838  76.1682 283.9749 15.05659448 48919
STARLINK-34570          
1 64860U 25152U   26158.33935604  .00004007  00000+0  28134-3 0  9995
2 64860  97.3973  13.1358 0002393  83.4049 276.7451 15.05680283 48901
STARLINK-34651          
1 64861U 25152V   26158.32553377  .00006709  00000+0  46862-3 0  9997
2 64861  97.3942  13.1640 0002240 102.8171 257.3307 15.05644848 48907
STARLINK-34684          
1 64862U 25152W   26158.16769205  .00004000  00000+0  28100-3 0  9996
2 64862  97.3966  13.0601 0001417  77.8530 282.2856 15.05658481 48886
STARLINK-34690          
1 64863U 25152X   26157.56126915  .00009269  00000+0  64538-3 0  9992
2 64863  97.3945  12.4947 0002291  78.0444 282.1040 15.05659917 48797
STARLINK-34628          
1 64864U 25152Y   26158.17046122  .00001966  00000+0  14021-3 0  9990
2 64864  97.3953  13.0476 0002089  87.5869 272.5598 15.05653208 48880
STARLINK-34544          
1 64865U 25152Z   26158.16215227  .00004078  00000+0  28641-3 0  9994
2 64865  97.3970  13.0603 0001516  54.1061 306.0307 15.05661042 48886
STARLINK-34647          
1 64904U 25157A   26158.09355233  .00024590  00000+0  73559-3 0  9996
2 64904  53.1614 290.2789 0001719  81.0527 279.0670 15.34440452 49807
STARLINK-34273          
1 64905U 25157B   26158.08513764  .00029314  00000+0  87472-3 0  9999
2 64905  53.1612 290.2228 0001286  90.2604 269.8545 15.34422150 49826
STARLINK-34713          
1 64906U 25157C   26158.10267977  .00030101  00000+0  10231-2 0  9999
2 64906  53.1610 290.3328 0001051  79.9864 280.1255 15.30237389 49760
STARLINK-34712          
1 64907U 25157D   26158.08887400  .00025891  00000+0  77419-3 0  9998
2 64907  53.1611 288.8293 0001950  86.9487 273.1739 15.34422799 49834
STARLINK-34702          
1 64908U 25157E   26157.67266563  .00039352  00000+0  12704-2 0  9996
2 64908  53.1588 291.9149 0001166 103.1243 256.9889 15.31769646 49752
STARLINK-34687          
1 64909U 25157F   26157.65498289  .00022242  00000+0  76019-3 0  9997
2 64909  53.1600 292.5099 0000982  65.4260 294.6843 15.30227200 49699
STARLINK-34642          
1 64910U 25157G   26157.64932032  .00038291  00000+0  12381-2 0  9999
2 64910  53.1604 291.7749 0001036  81.7434 278.3684 15.31731303 49757
STARLINK-34718          
1 64911U 25157H   26157.66553297  .00021707  00000+0  74192-3 0  9997
2 64911  53.1619 292.5861 0001202  99.9941 260.1196 15.30241413 49740
