OBJECT_NAME,OBJECT_ID,EPOCH,MEAN_MOTION,ECCENTRICITY,INCLINATION,RA_OF_ASC_NODE,ARG_OF_PERICENTER,MEAN_ANOMALY,EPHEMERIS_TYPE,CLASSIFICATION_TYPE,NORAD_CAT_ID,ELEMENT_SET_NO,REV_AT_EPOCH,BSTAR,MEAN_MOTION_DOT,MEAN_MOTION_DDOT
STARLINK-34709,2025-152C,2026-06-07T07:56:43.925280,15.05655404,.0002328,97.3947,13.1353,82.5500,277.5992,0,U,64844,999,4890,.15695E-3,.2208E-4,0
STARLINK-34706,2025-152D,2026-06-07T08:12:40.591872,15.05656277,.000154,97.3959,13.1221,70.3311,289.8083,0,U,64845,999,4890,.25874E-3,.3678E-4,0
STARLINK-34736,2025-152E,2026-06-07T12:07:57.036000,15.05647708,.0001624,97.3951,13.3533,86.6053,273.5360,0,U,64846,999,4893,-.68815E-4,-.1051E-4,0
STARLINK-34746,2025-152F,2026-06-07T09:04:31.500768,15.05658535,.0002641,97.3934,13.2256,86.3726,273.7804,0,U,64847,999,4891,.35962E-3,.5136E-4,0
STARLINK-34748,2025-152G,2026-06-07T03:57:29.274624,15.05657211,.0001145,97.3973,13.0565,69.2712,290.8638,0,U,64848,999,4888,.49214E-3,.7051E-4,0
STARLINK-34756,2025-152H,2026-06-07T09:08:30.863328,15.05656233,.0002373,97.3931,13.2384,85.6809,274.4689,0,U,64849,999,4891,.29807E-3,.4246E-4,0
STARLINK-34757,2025-152J,2026-06-07T07:44:46.228992,15.05658256,.0002314,97.3938,13.1436,85.5511,274.5980,0,U,64850,999,4890,.2799E-3,.3984E-4,0
STARLINK-34722,2025-152K,2026-06-07T08:00:43.115904,15.05656587,.0002315,97.3950,13.1316,81.8960,278.2530,0,U,64851,999,4890,.32384E-3,.4619E-4,0
STARLINK-34564,2025-152L,2026-06-07T07:36:47.788992,15.05660623,.0002464,97.3942,13.1545,88.8471,271.3039,0,U,64852,999,4890,.4329E-3,.6196E-4,0
STARLINK-34676,2025-152M,2026-06-07T08:04:42.193344,15.05657727,.000194,97.3947,13.1273,87.4612,272.6837,0,U,64853,999,4890,.33707E-3,.481E-4,0
STARLINK-34682,2025-152N,2026-06-07T08:32:37.778784,15.05647352,.000238,97.3958,13.2607,86.4021,273.7479,0,U,64854,999,4891,.31774E-3,.4529E-4,0
STARLINK-34631,2025-152P,2026-06-06T20:30:53.994240,15.05670303,.00029236,97.3952,12.7049,83.7120,276.4440,0,U,64855,999,4883,.43775249E-3,.6268E-4,0
STARLINK-34578,2025-152Q,2026-06-07T03:37:32.980224,15.05659625,.0001512,97.3940,13.0789,107.6422,252.4970,0,U,64856,999,4888,.24198E-3,.3436E-4,0
STARLINK-34683,2025-152R,2026-06-07T04:13:28.200576,15.05616958,.0003202,97.3975,13.0448,90.0815,270.0779,0,U,64857,999,4888,-.549E-3,-.7964E-4,0
STARLINK-34654,2025-152S,2026-06-07T08:28:38.136288,15.05654465,.0001592,97.3963,13.2520,76.5176,283.6228,0,U,64858,999,4891,.38546E-3,.5509E-4,0
STARLINK-34575,2025-152T,2026-06-07T08:20:40.087680,15.05659448,.0001838,97.3948,13.2684,76.1682,283.9749,0,U,64859,999,4891,.43454E-3,.6219E-4,0
STARLINK-34570,2025-152U,2026-06-07T08:08:40.361856,15.05680283,.0002393,97.3973,13.1358,83.4049,276.7451,0,U,64860,999,4890,.28134E-3,.4007E-4,0
STARLINK-34651,2025-152V,2026-06-07T07:48:46.117728,15.05644848,.000224,97.3942,13.1640,102.8171,257.3307,0,U,64861,999,4890,.46862E-3,.6709E-4,0
STARLINK-34684,2025-152W,2026-06-07T04:01:28.593120,15.05658481,.0001417,97.3966,13.0601,77.8530,282.2856,0,U,64862,999,4888,.281E-3,.4E-4,0
STARLINK-34690,2025-152X,2026-06-06T13:28:13.654560,15.05659917,.00022913,97.3945,12.4947,78.0444,282.1040,0,U,64863,999,4879,.645385E-3,.9269E-4,0
STARLINK-34628,2025-152Y,2026-06-07T04:05:27.849408,15.05653208,.0002089,97.3953,13.0476,87.5869,272.5598,0,U,64864,999,4888,.14021E-3,.1966E-4,0
STARLINK-34544,2025-152Z,2026-06-07T03:53:29.956128,15.05661042,.0001516,97.3970,13.0603,54.1061,306.0307,0,U,64865,999,4888,.28641E-3,.4078E-4,0
STARLINK-34647,2025-157A,2026-06-07T02:14:42.921312,15.34440452,.0001719,53.1614,290.2789,81.0527,279.0670,0,U,64904,999,4980,.73559E-3,.2459E-3,0
STARLINK-34273,2025-157B,2026-06-07T02:02:35.892096,15.34422150,.0001286,53.1612,290.2228,90.2604,269.8545,0,U,64905,999,4982,.87472E-3,.29314E-3,0
STARLINK-34713,2025-157C,2026-06-07T02:27:51.532128,15.30237389,.0001051,53.1610,290.3328,79.9864,280.1255,0,U,64906,999,4976,.10231E-2,.30101E-3,0
STARLINK-34712,2025-157D,2026-06-07T02:07:58.713600,15.34422799,.000195,53.1611,288.8293,86.9487,273.1739,0,U,64907,999,4983,.77419E-3,.25891E-3,0
STARLINK-34702,2025-157E,2026-06-06T16:08:38.310432,15.31769646,.00011661,53.1588,291.9149,103.1243,256.9889,0,U,64908,999,4975,.12704417E-2,.39352E-3,0
STARLINK-34687,2025-157F,2026-06-06T15:43:10.521696,15.30227200,.00009825,53.1600,292.5099,65.4260,294.6843,0,U,64909,999,4969,.76018773E-3,.22242E-3,0
STARLINK-34642,2025-157G,2026-06-06T15:35:01.275648,15.31731303,.00010366,53.1604,291.7749,81.7434,278.3684,0,U,64910,999,4975,.12381321E-2,.38291E-3,0
STARLINK-34718,2025-157H,2026-06-06T15:58:22.048608,15.30241413,.00012023,53.1619,292.5861,99.9941,260.1196,0,U,64911,999,4974,.74191982E-3,.21707E-3,0
